HST                     
1 20580U 90037B   26202.23634140  .00004226  00000+0  12921-3 0  9990
2 20580  28.4721 207.7932 0002089 161.9794 198.0877 15.31099653793794
POLAR                   
1 23802U 96013A   26200.38703378  .00000162  00000+0  00000+0 0  9990
2 23802  79.8986 226.6697 6502662 207.9705  92.0144  1.29846046145278
SWAS                    
1 25560U 98071A   26202.13810801  .00002251  00000+0  14555-3 0  9999
2 25560  69.8945 139.9554 0007517 223.7505 136.3065 15.09772379502394
CXO                     
1 25867U 99040B   26203.75757577  .00000588  00000+0  00000+0 0  9992
2 25867  56.6521 115.7083 7776511 309.9609   0.5640  0.37802015 17458
XMM-NEWTON              
1 25989U 99066A   26201.25992622 -.00000007  00000+0  00000+0 0  9997
2 25989  64.3074 282.5600 4664570  64.3171   0.0365  0.50127970 23163
TERRA                   
1 25994U 99068A   26202.25910914  .00000245  00000+0  58786-4 0  9992
2 25994  97.9436 250.4512 0003618 110.9634 313.8018 14.61126820414587
CLUSTER II-FM7 (SAMBA)  
1 26410U 00041A   26201.60182196  .00010308 -30415-5  00000+0 0  9992
2 26410 149.8020  56.9135 9091714 274.4939 359.4480  0.44850593 20460
CLUSTER II-FM8 (TANGO)  
1 26464U 00045B   26202.20476271  .00010744 -27289-5  00000+0 0  9991
2 26464 149.9916  58.1960 9096215 275.6329   2.0911  0.44427498 20465
ODIN                    
1 26702U 01007A   26202.09171423  .00404603  65645-4  11550-2 0  9995
2 26702  97.3688 245.5905 0004977 159.5979 200.5496 15.93222881394768
TIMED                   
1 26998U 01055B   26202.06208226  .00000794  00000+0  75513-4 0  9997
2 26998  74.0672 166.8085 0002363 293.8666  66.2271 14.95352863335887
CORIOLIS                
1 27640U 03001A   26202.30216744  .00000057  00000+0  47043-4 0  9995
2 27640  98.7138 208.6674 0015121 112.8807 247.3968 14.19952988219060
SORCE                   
1 27651U 03004A   26202.00873576  .00001627  00000+0  12667-3 0  9996
2 27651  39.9917  68.6867 0018679 293.4407  66.4424 15.03860593276991
MOST                    
1 27843U 03031D   26202.00166933  .00000031  00000+0  34028-4 0  9995
2 27843  98.7055 209.2568 0010420 149.0494 211.1300 14.21328536195514
SCISAT 1                
1 27858U 03036A   26202.19261917  .00000395  00000+0  55026-4 0  9998
2 27858  73.9301 103.7789 0007053 170.3636 189.7677 14.81483396236486
SWIFT                   
1 28485U 04047A   26202.30585594  .00050096  00000+0  36176-3 0  9998
2 28485  20.5518 281.0531 0002658  91.9964 268.0787 15.71660712192230
HINODE (SOLAR-B)        
1 29479U 06041A   26202.04645310  .00000423  00000+0  80967-4 0  9999
2 29479  98.0548 217.7002 0017521 175.7523 184.3834 14.68663006 59849
SHIJIAN-6 02A (SJ-6 02A)
1 29505U 06046A   26202.25664557  .00005274  00000+0  26814-3 0  9990
2 29505  97.6344 243.5832 0003826  50.0555 310.1014 15.17287873 77432
SHIJIAN-6 02B (SJ-6 02B)
1 29506U 06046B   26202.33542532  .00000305  00000+0  28337-4 0  9991
2 29506  97.7142 231.1821 0012633 313.9868  46.0314 15.01442943 75862
FGRST (GLAST)           
1 33053U 08029A   26201.68628735  .00001982  00000+0  65848-4 0  9993
2 33053  25.5829 331.8542 0008092   5.5378 354.5249 15.24095088   802
SDO                     
1 36395U 10005A   26202.19615476 -.00000097  00000+0  00000+0 0  9998
2 36395  34.7200  85.8242 0001647  43.2128 138.3850  1.00277625 60409
CRYOSAT 2               
1 36508U 10013A   26202.26592083  .00000058  00000+0  13784-4 0  9993
2 36508  92.0354 285.5863 0002476  98.8097 261.3390 14.51899565863020
X-SAT                   
1 37389U 11015C   26202.27502896  .00000021  00000+0  26559-4 0  9992
2 37389  98.3540 177.6790 0012806 241.0823 118.9073 14.25214678792530
GCOM-W1 (SHIZUKU)       
1 38337U 12025A   26201.81780396  .00000217  00000+0  58301-4 0  9997
2 38337  98.2024 141.8648 0001267  79.7574 340.0399 14.57092982753930
NUSTAR                  
1 38358U 12031A   26202.33335648  .00018595  00000+0  10828-2 0  9999
2 38358   6.0262 137.9323 0009218 256.6799  69.2123 15.09068806  1307
NEOSSAT                 
1 39089U 13009D   26202.21642252  .00000089  00000+0  45634-4 0  9990
2 39089  98.4195  21.4427 0011780 140.3157 219.8893 14.35836964701620
BRITE-AUSTRIA           
1 39091U 13009F   26202.05879768  .00000104  00000+0  49797-4 0  9991
2 39091  98.4014  20.6592 0011063 134.4751 225.7342 14.36554034701918
IRIS                    
1 39197U 13033A   26202.10409821  .00000688  00000+0  84910-4 0  9993
2 39197  97.9319  41.2741 0023731 204.9393 155.0677 14.85944692705414
HISAKI (SPRINT-A)       
1 39253U 13049A   26201.93315072  .00000089  00000+0  31794-4 0  9994
2 39253  29.7218  48.4412 0136959 290.3721  68.2186 13.55547058636002
CASSIOPE                
1 39265U 13055A   26202.24419582  .00017208 -50396-6  18428-3 0  9990
2 39265  80.9141  25.2657 0281826 307.3318  50.2532 15.27618671672869
STSAT-3                 
1 39422U 13066G   26202.26949344  .00002517  00000+0  19186-3 0  9991
2 39422  97.6214 171.6081 0008757 280.8304  79.1936 15.02911979689324
